NORAD_CAT_ID,OBJECT_NAME,OBJECT_TYPE,EPOCH,MEAN_MOTION,ECCENTRICITY,INCLINATION,RA_OF_ASC_NODE,ARG_OF_PERICENTER,MEAN_ANOMALY,BSTAR,MEAN_MOTION_DOT,MEAN_MOTION_DDOT,TLE_LINE0,TLE_LINE1,TLE_LINE2,SEMIMAJOR_AXIS,PERIOD,APOGEE,PERIGEE,DECAYED
53566.0,STARLINK-4576,PAYLOAD,2023-05-29 10:00:08,15.08838185,6.05e-05,53.2154,291.8483,62.8724,297.233,6.6524e-05,7.71e-06,0.0,0 STARLINK-4576,1 53566U 22101AR  23149.41676765  .00000771  00000-0  66524-4 0  9994,2 53566  53.2154 291.8483 0000605  62.8724 297.2330 15.08838185 43170,6917.886,95.438,540.169,539.332,0.0
53566.0,STARLINK-4576,PAYLOAD,2023-05-29 14:46:18,15.08839729,6.28e-05,53.2154,290.9564,61.6147,298.4908,6.1422e-05,6.9e-06,0.0,0 STARLINK-4576,1 53566U 22101AR  23149.61548612  .00000690  00000-0  61422-4 0  9997,2 53566  53.2154 290.9564 0000628  61.6147 298.4908 15.08839729 43899,6917.881,95.438,540.181,539.312,0.0
53566.0,STARLINK-4576,PAYLOAD,2023-05-29 16:21:41,15.08841372,5.82e-05,53.2161,290.6581,57.7062,302.3986,7.8544e-05,9.63e-06,0.0,0 STARLINK-4576,1 53566U 22101AR  23149.68172472  .00000963  00000-0  78544-4 0  9997,2 53566  53.2161 290.6581 0000582  57.7062 302.3986 15.08841372 43904,6917.876,95.437,540.144,539.339,0.0
53566.0,STARLINK-4576,PAYLOAD,2023-05-30 11:26:19,15.08836765,5.15e-05,53.2155,287.0907,70.1033,290.0015,-1.364e-05,-5.05e-06,0.0,0 STARLINK-4576,1 53566U 22101AR  23150.47660991 -.00000505  00000-0 -13640-4 0  9994,2 53566  53.2155 287.0907 0000515  70.1033 290.0015 15.08836765 44022,6917.89,95.438,540.112,539.399,0.0
53566.0,STARLINK-4576,PAYLOAD,2023-05-30 14:37:05,15.08838382,5.85e-05,53.2155,286.4963,59.2456,300.8594,2.5053e-06,-2.48e-06,0.0,0 STARLINK-4576,1 53566U 22101AR  23150.60908856 -.00000248  00000-0  25053-5 0  9999,2 53566  53.2155 286.4963 0000585  59.2456 300.8594 15.08838382 43355,6917.885,95.438,540.155,539.346,0.0
53566.0,STARLINK-4576,PAYLOAD,2023-05-30 16:12:28,15.08841696,5.24e-05,53.2155,286.1986,66.7682,293.3366,2.0615e-05,4.1e-07,0.0,0 STARLINK-4576,1 53566U 22101AR  23150.67532576  .00000041  00000-0  20615-4 0  9996,2 53566  53.2155 286.1986 0000524  66.7682 293.3366 15.08841696 44057,6917.875,95.437,540.103,539.378,0.0
53566.0,STARLINK-4576,PAYLOAD,2023-05-31 14:27:51,15.08841516,4.99e-05,53.2155,282.0355,79.2621,280.8427,8.5825e-05,1.079e-05,0.0,0 STARLINK-4576,1 53566U 22101AR  23151.60268504  .00001079  00000-0  85825-4 0  9993,2 53566  53.2155 282.0355 0000499  79.2621 280.8427 15.08841516 44190,6917.876,95.437,540.086,539.396,0.0
53566.0,STARLINK-4576,PAYLOAD,2023-05-31 17:38:37,15.0884992,6.24e-05,53.2155,281.4406,75.9042,284.202,9.4263e-05,1.213e-05,0.0,0 STARLINK-4576,1 53566U 22101AR  23151.73515961  .00001213  00000-0  94263-4 0  9995,2 53566  53.2155 281.4406 0000624  75.9042 284.2020 15.08849920 43520,6917.85,95.437,540.147,539.283,0.0
53566.0,STARLINK-4576,PAYLOAD,2023-06-02 01:26:21,15.08836657,6.51e-05,53.2149,275.4956,72.9966,287.1097,5.4973e-05,5.87e-06,0.0,0 STARLINK-4576,1 53566U 22101AR  23153.05997443  .00000587  00000-0  54973-4 0  9998,2 53566  53.2149 275.4956 0000651  72.9966 287.1097 15.08836657 43729,6917.891,95.438,540.206,539.305,0.0
53566.0,STARLINK-4576,PAYLOAD,2023-06-02 14:09:26,15.08839833,6.51e-05,53.2156,273.114,69.5782,290.528,3.2839e-05,2.35e-06,0.0,0 STARLINK-4576,1 53566U 22101AR  23153.58989443  .00000235  00000-0  32839-4 0  9994,2 53566  53.2156 273.1140 0000651  69.5782 290.5280 15.08839833 44491,6917.881,95.438,540.196,539.296,0.0
53566.0,STARLINK-4576,PAYLOAD,2023-06-02 15:44:49,15.08843512,6.56e-05,53.2162,272.816,68.3577,291.7485,2.5525e-05,1.19e-06,0.0,0 STARLINK-4576,1 53566U 22101AR  23153.65613240  .00000119  00000-0  25525-4 0  9996,2 53566  53.2162 272.8160 0000656  68.3577 291.7485 15.08843512 44501,6917.87,95.437,540.188,539.281,0.0
53566.0,STARLINK-4576,PAYLOAD,2023-06-03 07:38:41,15.08839457,7.28e-05,53.2162,269.8436,65.1776,294.9291,0.00011559,1.552e-05,0.0,0 STARLINK-4576,1 53566U 22101AR  23154.31853467  .00001552  00000-0  11559-3 0  9990,2 53566  53.2162 269.8436 0000728  65.1776 294.9291 15.08839457 43916,6917.882,95.438,540.251,539.243,0.0
53566.0,STARLINK-4576,PAYLOAD,2023-06-03 14:00:13,15.08841537,6.57e-05,53.2152,268.654,63.5955,296.5105,0.00012395,1.686e-05,0.0,0 STARLINK-4576,1 53566U 22101AR  23154.58349290  .00001686  00000-0  12395-3 0  9990,2 53566  53.2152 268.6540 0000657  63.5955 296.5105 15.08841537 44645,6917.876,95.437,540.195,539.286,0.0
53566.0,STARLINK-4576,PAYLOAD,2023-06-04 10:40:14,15.08838822,6.96e-05,53.2151,264.7882,61.8123,298.294,9.3356e-05,1.198e-05,0.0,0 STARLINK-4576,1 53566U 22101AR  23155.44461556  .00001198  00000-0  93356-4 0  9991,2 53566  53.2151 264.7882 0000696  61.8123 298.2940 15.08838822 44088,6917.884,95.438,540.23,539.268,0.0
53566.0,STARLINK-4576,PAYLOAD,2023-06-04 13:51:00,15.08842808,5.97e-05,53.2152,264.193,69.5489,290.5567,8.6807e-05,1.094e-05,0.0,0 STARLINK-4576,1 53566U 22101AR  23155.57709244  .00001094  00000-0  86807-4 0  9992,2 53566  53.2152 264.1930 0000597  69.5489 290.5567 15.08842808 44794,6917.872,95.437,540.15,539.324,0.0
53566.0,STARLINK-4576,PAYLOAD,2023-06-04 17:01:46,15.08845765,5.91e-05,53.2153,263.5972,80.0939,280.0119,0.00011392,1.526e-05,0.0,0 STARLINK-4576,1 53566U 22101AR  23155.70956920  .00001526  00000-0  11392-3 0  9998,2 53566  53.2153 263.5972 0000591  80.0939 280.0119 15.08845765 44125,6917.863,95.437,540.137,539.319,0.0
53566.0,STARLINK-4576,PAYLOAD,2023-06-05 10:31:02,15.08819184,4.42e-05,53.2151,260.3255,114.0071,246.0967,0.00033892,5.107e-05,0.0,0 STARLINK-4576,1 53566U 22101AR  23156.43821899  .00005107  00000-0  33892-3 0  9993,2 53566  53.2151 260.3255 0000442 114.0071 246.0967 15.08819184 44233,6917.944,95.439,540.115,539.503,0.0
53566.0,STARLINK-4576,PAYLOAD,2023-06-05 13:41:47,15.08845214,5.72e-05,53.2152,259.7316,75.3194,284.7862,8.2667e-05,1.028e-05,0.0,0 STARLINK-4576,1 53566U 22101AR  23156.57068864  .00001028  00000-0  82667-4 0  9996,2 53566  53.2152 259.7316 0000572  75.3194 284.7862 15.08845214 44947,6917.864,95.437,540.125,539.334,0.0
53566.0,STARLINK-4576,PAYLOAD,2023-06-06 08:46:25,15.08837556,5.32e-05,53.2155,256.1649,61.5521,298.5525,5.2098e-05,5.42e-06,0.0,0 STARLINK-4576,1 53566U 22101AR  23157.36557383  .00000542  00000-0  52098-4 0  9998,2 53566  53.2155 256.1649 0000532  61.5521 298.5525 15.08837556 44373,6917.888,95.438,540.121,539.385,0.0
53566.0,STARLINK-4576,PAYLOAD,2023-06-06 11:57:11,15.08838995,5.77e-05,53.2155,255.5701,65.0578,295.0474,4.8139e-05,4.79e-06,0.0,0 STARLINK-4576,1 53566U 22101AR  23157.49805324  .00000479  00000-0  48139-4 0  9993,2 53566  53.2155 255.5701 0000577  65.0578 295.0474 15.08838995 45087,6917.883,95.438,540.148,539.349,0.0
53566.0,STARLINK-4576,PAYLOAD,2023-06-06 15:07:57,15.08844941,5.37e-05,53.2152,254.9744,75.1645,284.9406,3.4428e-05,2.6e-06,0.0,0 STARLINK-4576,1 53566U 22101AR  23157.63052959  .00000260  00000-0  34428-4 0  9991,2 53566  53.2152 254.9744 0000537  75.1645 284.9406 15.08844941 45100,6917.865,95.437,540.102,539.359,0.0
53566.0,STARLINK-4576,PAYLOAD,2023-06-07 07:01:50,15.0883175,5.69e-05,53.2153,252.0016,62.8767,297.2283,1.9602e-05,2.4e-07,0.0,0 STARLINK-4576,1 53566U 22101AR  23158.29293997  .00000024  00000-0  19602-4 0  9998,2 53566  53.2153 252.0016 0000569  62.8767 297.2283 15.08831750 44513,6917.906,95.438,540.164,539.377,0.0
53566.0,STARLINK-4576,PAYLOAD,2023-06-07 22:55:41,15.08839901,6.6e-05,53.2159,249.0306,96.4331,263.6736,-3.1927e-06,-3.38e-06,0.0,0 STARLINK-4576,1 53566U 22101AR  23158.95533626 -.00000338  00000-0 -31927-5 0  9992,2 53566  53.2159 249.0306 0000660  96.4331 263.6736 15.08839901 44616,6917.881,95.438,540.202,539.289,0.0
53566.0,STARLINK-4576,PAYLOAD,2023-06-08 11:38:46,15.08837914,6.36e-05,53.2161,246.649,83.5474,276.5591,6.5107e-05,7.49e-06,0.0,0 STARLINK-4576,1 53566U 22101AR  23159.48525753  .00000749  00000-0  65107-4 0  9993,2 53566  53.2161 246.6490 0000636  83.5474 276.5591 15.08837914 45383,6917.887,95.438,540.192,539.312,0.0
53566.0,STARLINK-4576,PAYLOAD,2023-06-08 14:49:32,15.08842981,5.14e-05,53.2153,246.0517,105.4954,254.6095,0.00010608,1.401e-05,0.0,0 STARLINK-4576,1 53566U 22101AR  23159.61773190  .00001401  00000-0  10608-3 0  9999,2 53566  53.2153 246.0517 0000514 105.4954 254.6095 15.08842981 45409,6917.871,95.437,540.092,539.381,0.0
53566.0,STARLINK-4576,PAYLOAD,2023-06-09 09:54:10,15.08835271,4.54e-05,53.2146,242.4819,102.6737,257.4306,1.7944e-05,-2e-08,0.0,0 STARLINK-4576,1 53566U 22101AR  23160.41262223 -.00000002  00000-0  17944-4 0  9997,2 53566  53.2146 242.4819 0000454 102.6737 257.4306 15.08835271 45520,6917.895,95.438,540.074,539.446,0.0
53566.0,STARLINK-4576,PAYLOAD,2023-06-09 13:04:56,15.08837643,5.46e-05,53.2148,241.8883,101.7506,258.3547,4.8948e-05,4.91e-06,0.0,0 STARLINK-4576,1 53566U 22101AR  23160.54510059  .00000491  00000-0  48948-4 0  9993,2 53566  53.2148 241.8883 0000546 101.7506 258.3547 15.08837643 44859,6917.888,95.438,540.13,539.375,0.0
53566.0,STARLINK-4576,PAYLOAD,2023-06-10 11:20:20,15.08841077,6.9e-05,53.2148,237.727,85.6898,274.4173,9.0084e-05,1.146e-05,0.0,0 STARLINK-4576,1 53566U 22101AR  23161.47245909  .00001146  00000-0  90084-4 0  9991,2 53566  53.2148 237.7270 0000690  85.6898 274.4173 15.08841077 45689,6917.877,95.437,540.219,539.265,0.0
53566.0,STARLINK-4576,PAYLOAD,2023-06-11 01:38:48,15.08838045,6.51e-05,53.2155,235.049,89.7742,270.3324,8.8895e-05,1.127e-05,0.0,0 STARLINK-4576,1 53566U 22101AR  23162.06862052  .00001127  00000-0  88895-4 0  9997,2 53566  53.2155 235.0490 0000651  89.7742 270.3324 15.08838045 45080,6917.886,95.438,540.202,539.301,0.0
53566.0,STARLINK-4576,PAYLOAD,2023-06-11 11:11:07,15.08839499,7.25e-05,53.2149,233.2673,75.0262,285.081,5.6788e-05,6.16e-06,0.0,0 STARLINK-4576,1 53566U 22101AR  23162.46606215  .00000616  00000-0  56788-4 0  9996,2 53566  53.2149 233.2673 0000725  75.0262 285.0810 15.08839499 45833,6917.882,95.438,540.248,539.245,0.0
